ESTCUBE 1               
1 39161U 13021C   21315.93917403  .00000519  00000-0  89175-4 0  9994
2 39161  97.9299  33.6737 0010428  44.0847 316.1156 14.72579749457451
FENGYUN 3C              
1 39260U 13052A   21316.11295641  .00000047  00000-0  44709-4 0  9992
2 39260  98.4825 349.9442 0011081 175.0308 185.0983 14.15885248421162
CASSIOPE                
1 39265U 13055A   21315.91415022  .00005701  00000-0  15836-3 0  9994
2 39265  80.9645 137.1010 0641640 240.4791 113.0958 14.33838412421113
ZACUBE-1 (TSHEPISOSAT)  
1 39417U 13066B   21315.88316797  .00000648  00000-0  86362-4 0  9998
2 39417  97.6103 292.7081 0059476  39.0225 321.5257 14.81670919430900
CINEMA-3 (KHUSAT-2)     
1 39426U 13066L   21315.79360375  .00000241  00000-0  45370-4 0  9992
2 39426  97.7735 260.5740 0103087 212.4654 147.0185 14.69776812427292
TRITON-1                
1 39427U 13066M   21316.05910930  .00000403  00000-0  71887-4 0  9993
2 39427  97.7911 256.6930 0111716 239.0433 119.9757 14.68391151427060
DELFI-N3XT              
1 39428U 13066N   21315.84113794  .00000716  00000-0  12029-3 0  9992
2 39428  97.7943 254.9844 0117843 253.1297 105.6959 14.68248189426778
GOMX-1                  
1 39430U 13066Q   21316.05183220  .00000832  00000-0  15789-3 0  9995
2 39430  97.8125 230.6314 0150943  10.5069 349.9212 14.59738243424573
BRITE-PL1 (LEM)         
1 39431U 13066R   21315.86529518  .00000117  00000-0  35000-4 0  9993
2 39431  97.7264 183.5518 0201838 182.1776 177.8561 14.47187205420899
ICUBE-1                 
1 39432U 13066S   21315.93734974  .00000643  00000-0  69798-4 0  9991
2 39432  97.4713 326.1810 0030078 270.8646  88.9126 14.91091646432280
HUMSAT-D                
1 39433U 13066T   21315.96053787  .00000730  00000-0  74630-4 0  9999
2 39433  97.4619 333.4535 0028745 246.9306 112.8884 14.93174294432759
VELOX-PII               
1 39438U 13066Y   21315.85902344  .00000465  00000-0  68115-4 0  9990
2 39438  97.6626 283.5012 0071664  85.2537 275.6854 14.78343053428852
FIRST-MOVE              
1 39439U 13066Z   21315.93742356  .00001303  00000-0  16123-3 0  9998
2 39439  97.6143 294.5567 0065347  35.7595 324.7968 14.82901936430893
CUBEBUG-2 (LO-74)       
1 39440U 13066AA  21316.14063923  .00000445  00000-0  67707-4 0  9991
2 39440  97.6967 278.3525 0080951 115.9032 245.0551 14.76383019429416
NEE-02 KRYSAOR          
1 39441U 13066AB  21315.83542433  .00000311  00000-0  50607-4 0  9998
2 39441  97.7068 275.3439 0082410 128.7423 232.1190 14.75284965427940
FUNCUBE-1 (AO-73)       
1 39444U 13066AE  21315.91075200  .00000785  00000-0  10099-3 0  9998
2 39444  97.6000 295.1207 0058273  28.6416 331.7978 14.82611094429285
HINCUBE                 
1 39445U 13066AF  21315.93559837  .00000772  00000-0  99927-4 0  9998
2 39445  97.6015 294.9837 0058350  30.4846 329.9739 14.82437949429236
UWE-3                   
1 39446U 13066AG  21315.85985813  .00000559  00000-0  79347-4 0  9994
2 39446  97.6565 284.8549 0070990  78.9154 282.0030 14.78926929428292
AIST-1 (RS-41)          
1 39492U 13078C   21316.15149309  .00000512  00000-0  52722-4 0  9991
2 39492  82.4185  84.4782 0021326 104.7824 255.5761 14.88116805427466
SPROUT                  
1 39770U 14029E   21315.95206052  .00002802  00000-0  30437-3 0  9995
2 39770  97.9289  67.2300 0010143  85.2135 275.0231 14.88892484405288
UNISAT-6                
1 40012U 14033C   21316.11147313  .00000403  00000-0  66292-4 0  9998
2 40012  97.6648 150.7159 0058771 141.5611 218.9807 14.74435100397951
BUGSAT-1 (TITA)         
1 40014U 14033E   21316.25813317  .00001496  00000-0  13794-3 0  9990
2 40014  98.1263 301.1585 0032479  38.5709 321.7823 14.95935910403661
DUCHIFAT-1              
1 40021U 14033M   21315.79689088  .00001300  00000-0  13509-3 0  9990
2 40021  97.9865 257.6606 0013804  43.1300 317.0997 14.91623663402241
NANOSATC-BR1            
1 40024U 14033Q   21315.78618311  .00001013  00000-0  10906-3 0  9992
2 40024  97.9626 252.0706 0013249  48.8581 311.3778 14.90677602401542
QB50P1                  
1 40025U 14033R   21315.80500331  .00000719  00000-0  81120-4 0  9997
2 40025  97.9414 246.9323 0013645  57.2443 303.0087 14.89640025401353
DTUSAT-2                
1 40030U 14033W   21315.78573009  .00000653  00000-0  75054-4 0  9998
2 40030  97.9219 243.0311 0013074  54.2150 306.0280 14.89172028401244
QB50P2                  
1 40032U 14033Y   21315.68575175  .00000756  00000-0  85991-4 0  9990
2 40032  97.9224 242.9401 0013009  55.3927 304.8514 14.89133956401201
POLYITAN-1              
1 40042U 14033AJ  21315.80714037  .00000918  00000-0  10229-3 0  9998
2 40042  97.9511 247.8772 0015762  48.8272 311.4302 14.89485717401242
TIGRISAT                
1 40043U 14033AK  21316.11436802  .00000307  00000-0  51850-4 0  9993
2 40043  97.6607 152.0899 0060518 139.2927 221.2829 14.74631389397893
AISAT                   
1 40054U 14034B   21316.00856639  .00000872  00000-0  12662-3 0  9992
2 40054  98.3393 114.2143 0011642 293.4005  66.5980 14.78665961397335
CANX-4                  
1 40055U 14034C   21316.22845998  .00000235  00000-0  42878-4 0  9999
2 40055  98.3277 101.5400 0013585 333.9943  26.0581 14.75127277396721
CANX-5                  
1 40056U 14034D   21316.16619463  .00000233  00000-0  42629-4 0  9991
2 40056  98.3277 101.4598 0013622 334.4212  25.6320 14.75120098396715
VELOX-I                 
1 40057U 14034E   21316.22876040  .00001004  00000-0  14565-3 0  9999
2 40057  98.3445 115.5384 0009819 308.6003  51.4301 14.78365783397370
METEOR-M 2              
1 40069U 14037A   21316.05326476 -.00000027  00000-0  66026-5 0  9995
2 40069  98.4501 338.6037 0004674 225.6306 134.4495 14.20691255380997
DX1                     
1 40071U 14037C   21316.15726218  .00000375  00000-0  55230-4 0  9996
2 40071  98.4349 168.7331 0007291 298.9983  61.0486 14.81576950397164
UKUBE-1                 
1 40074U 14037F   21312.07140622 -.00000013  00000-0  55916-5 0  9997
2 40074  98.4081 175.8739 0003377 289.3103  70.7745 14.84714235397214
FIREBIRD 3              
1 40377U 15003B   21315.90978602  .00004175  00000-0  14731-3 0  9999
2 40377  99.1143 128.3681 0114160  38.6893 322.2447 15.24016563375236
FIREBIRD 4              
1 40378U 15003C   21315.94644338  .00004204  00000-0  14800-3 0  9990
2 40378  99.1147 128.5795 0114167  38.3130 322.6143 15.24083178375241
GRIFEX                  
1 40379U 15003D   21316.13497804  .00003389  00000-0  13447-3 0  9996
2 40379  99.1138 116.8118 0126132  73.4601 288.0440 15.19248290374605
CP10 (EXOCUBE)          
1 40380U 15003E   21316.16785807  .00003139  00000-0  13216-3 0  9991
2 40380  99.1159 110.6531 0132157  93.9835 267.6512 15.16769715374207
DEORBITSAIL             
1 40719U 15032E   21315.91080360  .00000764  00000-0  11377-3 0  9990
2 40719  97.8066 196.2639 0016292 355.0260   5.0786 14.77581336341757
NUDT-PHONESAT           
1 40900U 15049B   21316.13634627  .00007344  00000-0  27053-3 0  9995
2 40900  97.4163 329.3871 0010753 348.4248  84.2554 15.28078429341368
XW-2A                   
1 40903U 15049E   21316.14090457  .00006561  00000-0  13204-3 0  9999
2 40903  97.2171  10.1438 0011402 186.8731 257.6768 15.46872663345612
XW-2C                   
1 40906U 15049H   21316.18545233  .00002114  00000-0  10956-3 0  9994
2 40906  97.4905 316.7679 0015603  39.6346  28.2302 15.17187783339965
XW-2D                   
1 40907U 15049J   21316.21087100  .00002190  00000-0  11217-3 0  9998
2 40907  97.4903 316.6444 0014891  36.4530  24.9514 15.17567283340003
LILACSAT-2              
1 40908U 15049K   21316.20508395  .00001122  00000-0  64004-4 0  9999
2 40908  97.5117 314.2625 0017131  52.7755   8.1958 15.14699966339596
XW-2E                   
1 40909U 15049L   21316.11470096  .00003363  00000-0  15775-3 0  9995
2 40909  97.4682 320.7434 0013502  23.1726  50.0384 15.20282866340361
XW-2F                   
1 40910U 15049M   21316.10082900  .00003352  00000-0  15946-3 0  9997
2 40910  97.4746 319.8217 0014678  22.5019  50.7521 15.19778851340143
XW-2B                   
1 40911U 15049N   21316.15656845  .00002130  00000-0  10950-3 0  9991
2 40911  97.4900 317.2483 0014814  37.8105  26.3812 15.17477632339882
KAITUO 1B               
1 40912U 15049P   21316.11107354  .00003746  00000-0  16477-3 0  9998
2 40912  97.4445 324.2156 0013688 352.7281  80.6086 15.22420717340655
TIANWANG 1A (TW-1A)     
1 40928U 15051D   21316.15174334  .00010266  00000-0  19562-3 0  9997
2 40928  97.0662 337.6225 0010919 106.7926 326.6772 15.48301253344527
LAPAN-A2                
1 40931U 15052B   21314.49650104  .00000870  00000-0  31993-4 0  9994
2 40931   5.9977 290.8412 0013644 309.6632  50.2338 14.76703938330925
LQSAT                   
1 40958U 15057A   21316.13647842  .00000189  00000-0  36656-4 0  9990
2 40958  97.7840   6.7017 0016865 304.0341  55.9268 14.73217101327986
ATHENOXAT 1             
1 41168U 15077C   21316.03836347  .00005360  00000-0  23024-3 0  9995
2 41168  14.9885 255.3342 0010405  73.4675  11.5890 15.16642311327212
GALASSIA                
1 41170U 15077E   21315.46390254  .00004121  00000-0  16830-3 0  9997
2 41170  14.9881 249.9992 0011698  96.0468 264.1187 15.16743267327045
VELOX-II                
1 41171U 15077F   21315.34118579  .00003348  00000-0  14589-3 0  9992
2 41171  14.9922 314.2499 0008367 312.8491  47.1127 15.13146082326506
CHUBUSAT-2              
1 41338U 16012B   21315.73880493  .00000709  00000-0  47861-4 0  9999
2 41338  31.0038 329.2438 0013638 153.7377 206.3952 15.00688056314746
CHUBUSAT-3              
1 41339U 16012C   21316.21341857  .00000751  00000-0  50985-4 0  9998
2 41339  31.0122 323.3091 0013493 167.7652 192.3275 15.00823948314812
HORYU-4                 
1 41340U 16012D   21315.68567657  .00001169  00000-0  80050-4 0  9998
2 41340  31.0053 308.3527 0013799 195.3196 164.7023 15.02154474314944
